NUSAT-1 (FRESCO)        
1 41557U 16033B   22120.57260920  .00018701  00000+0  57993-3 0  9995
2 41557  97.3856 218.2412 0011853 181.7930 286.9485 15.33392632330048
BEESAT-4                
1 41619U 16040W   22119.60061945  .00021352  00000+0  74373-3 0  9997
2 41619  97.2221 171.5706 0007898 290.9651  69.0744 15.29655525313256
CAS-2T & KS-1Q          
1 41847U 16066G   22120.14183518  .00001033  00000+0  16500-3 0  9992
2 41847  98.5545 184.8524 0363953 354.5683   5.1603 14.38519416287405
NAYIF-1 (EO-88)         
1 42017U 17008BX  22120.15811412  .00023838  00000+0  74904-3 0  9990
2 42017  97.2725 187.0196 0006255  72.5037 287.6889 15.32970312289675
ZHUHAI-1 02 (CAS-4B)    
1 42759U 17034B   22120.47545059  .00006153  00000+0  36925-3 0  9990
2 42759  43.0174 237.0808 0009377 339.3276 107.7108 15.11519569269098
ZHUHAI-1 01 (CAS-4A)    
1 42761U 17034D   22120.50821498  .00006637  00000+0  39621-3 0  9994
2 42761  43.0180 235.7232 0009395 340.6708  74.0624 15.11614088269102
MAX VALIER SAT          
1 42778U 17036P   22119.68648331  .00012947  00000+0  50344-3 0  9990
2 42778  97.2109 162.4780 0012828 134.2038 226.0257 15.26084242269463
RADFXSAT (FOX-1B)       
1 43017U 17073E   22120.40977136  .00007417  00000+0  56117-3 0  9998
2 43017  97.6808  16.5597 0249593 345.5453  13.8707 14.81041671240004
FOX-1D (AO-92)          
1 43137U 18004AC  22120.44921767  .00014863  00000+0  53969-3 0  9994
2 43137  97.3708 196.0677 0008665 163.3668 196.7858 15.28365702239005
DIWATA-2B               
1 43678U 18084H   22120.43485354  .00001021  00000+0  10619-3 0  9995
2 43678  97.9621 253.1628 0011316  84.5333 275.7162 14.92070771190692
ES'HAIL 2               
1 43700U 18090A   22119.86037073  .00000140  00000+0  00000+0 0  9994
2 43700   0.0120 213.9606 0002364 216.6665 122.6718  1.00273314 12543
FOX-1CLIFF (AO-95)      
1 43770U 18099N   22120.44213694  .00003895  00000+0  35003-3 0  9996
2 43770  97.6232 188.0397 0015375  78.8636 281.4313 14.96163590185838
ITASAT 1                
1 43786U 18099AE  22120.17317768  .00003276  00000+0  29382-3 0  9996
2 43786  97.6259 188.6690 0016018  72.5569 287.7402 14.96346682185830
JY1SAT (JO-97)          
1 43803U 18099AX  22120.13913194  .00005418  00000+0  47705-3 0  9996
2 43803  97.6229 188.3796 0016450  73.2740 287.0286 14.96781975185842
UWE-4                   
1 43880U 18111E   22120.30696460  .00004164  00000+0  35833-3 0  9995
2 43880  97.6734  27.4614 0013610 116.8015 243.4601 14.97848353180492
NEXUS (FO-99)           
1 43937U 19003F   22120.03633352  .00019324  00000+0  67438-3 0  9990
2 43937  97.1354 155.2994 0019639 331.1546  28.8608 15.29453318182579
PSAT2 (NO-104)          
1 44354U 19036R   22120.40207478  .00071527 -48707-5  71290-3 0  9994
2 44354  28.5243 149.8781 0252314 151.6508 209.8074 15.33423601157277
JAISAT-1                
1 44419U 19038F   22120.41513254  .00012564  00000+0  64530-3 0  9993
2 44419  97.6321  90.1916 0017629 301.4054  58.5454 15.16504490155771
DUCHIFAT-3              
1 44854U 19089C   22120.43932816  .00005709  00000+0  44785-3 0  9996
2 44854  36.9666  24.9149 0007539 204.0068 324.9175 15.00704314130714
CAS-6 (TO-108)          
1 44881U 19093C   22120.49625775  .00000813  00000+0  10982-3 0  9993
2 44881  97.8935 200.3935 0014731 348.1083  11.9784 14.81662158127678
RS-44 & BREEZE-KM R/B   
1 44909U 19096E   22119.87503990 -.00000002  00000+0 -60339-4 0  9995
2 44909  82.5194 262.5451 0218299  73.4520 289.0436 12.79713265109290
ORBITAL FACTORY 2 (OF-2)
1 45113U 19071C   22119.89681232  .00039125  00000+0  87938-3 0  9993
2 45113  51.6391 297.8489 0009162 353.8420   6.2451 15.42910558125872
HUSKYSAT-1 (HO-107)     
1 45119U 19071J   22120.52597805  .00031618  00000+0  72750-3 0  9998
2 45119  51.6389 294.5291 0009030 353.3339   6.7525 15.42315740125967
BY70-2                  
1 45857U 20042B   22120.47456811  .00009094  00000+0  12338-2 0  9990
2 45857  97.9556 197.7978 0008772 266.0438  93.9840 14.79077497 98367
SALSAT                  
1 46495U 20068K   22119.80789013  .00003430  00000+0  25027-3 0  9993
2 46495  97.7261  61.1134 0018449  83.0144 277.3179 15.04249922 86877
BY70-3                  
1 46839U 20079N   22120.52070898  .00030767  00000+0  77509-3 0  9997
2 46839  97.2014 193.3099 0007141 141.6184 326.9083 15.39817385 82862
RADFXSAT-2 (AO-109)     
1 47311U 21002C   22119.75019076  .00011979  00000+0  49409-3 0  9996
2 47311  60.6857 185.4708 0011420 268.1892  91.7888 15.24425729 71030
UVSQ-SAT                
1 47438U 21006AB  22119.41687806  .00010981  00000+0  58910-3 0  9994
2 47438  97.4418 179.4446 0013757  87.7436 272.5371 15.15044116 69857
DIY-1 (ARDUIQUBE)       
1 47963U 21022AH  22119.66128232  .00025958  00000+0  15131-2 0  9992
2 47963  97.5373  21.6342 0015426 306.2984  53.6821 15.11859697 59576
XW-3 (CAS-9)            
1 50466U 21131B   22120.52528890  .00000390  00000+0  14222-3 0  9990
2 50466  98.5813 197.8000 0003255 295.4566  64.6284 14.38475406 18027
